[{"OBJECT_NAME":"STARLINK-35870","OBJECT_ID":"2025-268R","EPOCH":"2026-03-08T11:53:59.419104","MEAN_MOTION":15.27602843,"ECCENTRICITY":1.431e-5,"INCLINATION":43.001,"RA_OF_ASC_NODE":354.1122,"ARG_OF_PERICENTER":225.0235,"MEAN_ANOMALY":135.0605,"EPHEMERIS_TYPE":0,"CLASSIFICATION_TYPE":"U","NORAD_CAT_ID":66572,"ELEMENT_SET_NO":999,"REV_AT_EPOCH":1777,"BSTAR":5.097385e-5,"MEAN_MOTION_DOT":1.142e-5,"MEAN_MOTION_DDOT":0},{"OBJECT_NAME":"OBJECT E","OBJECT_ID":"2024-018E","EPOCH":"2026-02-28T11:49:38.272512","MEAN_MOTION":14.54274509,"ECCENTRICITY":0.03649823,"INCLINATION":58.9635,"RA_OF_ASC_NODE":229.5952,"ARG_OF_PERICENTER":296.8367,"MEAN_ANOMALY":59.5785,"EPHEMERIS_TYPE":0,"CLASSIFICATION_TYPE":"U","NORAD_CAT_ID":65789,"ELEMENT_SET_NO":999,"REV_AT_EPOCH":9314,"BSTAR":0.0004744631,"MEAN_MOTION_DOT":4.754e-5,"MEAN_MOTION_DDOT":0}]
